[{"OBJECT_NAME":"STARLINK-33604","OBJECT_ID":"2025-035U","EPOCH":"2026-03-09T06:53:58.649568","MEAN_MOTION":15.27569526,"ECCENTRICITY":0.00010548,"INCLINATION":42.9968,"RA_OF_ASC_NODE":149.7484,"ARG_OF_PERICENTER":219.7112,"MEAN_ANOMALY":140.3663,"EPHEMERIS_TYPE":0,"CLASSIFICATION_TYPE":"U","NORAD_CAT_ID":63070,"ELEMENT_SET_NO":999,"REV_AT_EPOCH":5965,"BSTAR":0.00092728411,"MEAN_MOTION_DOT":0.00025334,"MEAN_MOTION_DDOT":0},{"OBJECT_NAME":"CZ-6A DEB","OBJECT_ID":"2024-140ABG","EPOCH":"2026-03-09T16:43:29.524800","MEAN_MOTION":15.18896608,"ECCENTRICITY":0.00616087,"INCLINATION":89.2171,"RA_OF_ASC_NODE":295.9508,"ARG_OF_PERICENTER":79.2706,"MEAN_ANOMALY":281.5467,"EPHEMERIS_TYPE":0,"CLASSIFICATION_TYPE":"U","NORAD_CAT_ID":61498,"ELEMENT_SET_NO":999,"REV_AT_EPOCH":8006,"BSTAR":0.0048163661,"MEAN_MOTION_DOT":0.0010689,"MEAN_MOTION_DDOT":0}]
